{"type": "FeatureCollection", "features": [ {"type": "Feature", "properties": {"norad_id": 34682, "name": "COSMOS 2251 DEB", "group": "cosmos-2251-debris", "lat": -66.2922466851096, "lon": -55.39062549629704, "alt_km": 693.0437515921349, "timestamp": "2025-12-12T05:47:29.166352+00:00", "meta": {"OBJECT_NAME": "COSMOS 2251 DEB", "OBJECT_ID": "1993-036YC", "EPOCH": "2025-12-11T13:53:50.167968", "MEAN_MOTION": 14.58882941, "ECCENTRICITY": 0.0018378, "INCLINATION": 74.0392, "RA_OF_ASC_NODE": 85.198, "ARG_OF_PERICENTER": 218.1607, "MEAN_ANOMALY": 157.1828, "EPHEMERIS_TYPE": 0, "CLASSIFICATION_TYPE": "U", "NORAD_CAT_ID": 34682, "ELEMENT_SET_NO": 999, "REV_AT_EPOCH": 88669, "BSTAR": 0.0013393775, "MEAN_MOTION_DOT": 6.264e-05, "MEAN_MOTION_DDOT": 0}, "tle": {"line1": "1 34682U 93036YC  25345.57905287  .00006264  00000+0  13394-2 0  9995", "line2": "2 34682  74.0392  85.1980 0018378 218.1607 157.1828 14.58882941886692"}}, "geometry": {"type": "Point", "coordinates": [-55.39062549629704, -66.2922466851096]}}, {"type": "Feature", "properties": {"norad_id": 34683, "name": "COSMOS 2251 DEB", "group": "cosmos-2251-debris", "lat": 32.96333323444294, "lon": 103.92956139022981, "alt_km": 689.205008700158, "timestamp": "2025-12-12T05:47:29.166363+00:00", "meta": {"OBJECT_NAME": "COSMOS 2251 DEB", "OBJECT_ID": "1993-036YD", "EPOCH": "2025-12-11T08:34:43.110624", "MEAN_MOTION": 14.64459504, "ECCENTRICITY": 0.00182932, "INCLINATION": 74.0287, "RA_OF_ASC_NODE": 94.9248, "ARG_OF_PERICENTER": 209.9511, "MEAN_ANOMALY": 206.723, "EPHEMERIS_TYPE": 0, "CLASSIFICATION_TYPE": "U", "NORAD_CAT_ID": 34683, "ELEMENT_SET_NO": 999, "REV_AT_EPOCH": 88328, "BSTAR": 0.0027933889, "MEAN_MOTION_DOT": 0.00014829, "MEAN_MOTION_DDOT": 0}, "tle": {"line1": "1 34683U 93036YD  25345.35744341  .00014829  00000+0  27934-2 0  9995", "line2": "2 34683  74.0287  94.9248 0018293 209.9511 206.7230 14.64459504883281"}}, "geometry": {"type": "Point", "coordinates": [103.92956139022981, 32.96333323444294]}}, {"type": "Feature", "properties": {"norad_id": 34685, "name": "COSMOS 2251 DEB", "group": "cosmos-2251-debris", "lat": -17.04943021127383, "lon": -25.230999149302374, "alt_km": 700.1764933992545, "timestamp": "2025-12-12T05:47:29.166373+00:00", "meta": {"OBJECT_NAME": "COSMOS 2251 DEB", "OBJECT_ID": "1993-036YF", "EPOCH": "2025-12-11T21:20:32.951328", "MEAN_MOTION": 14.57494502, "ECCENTRICITY": 0.00142873, "INCLINATION": 74.0292, "RA_OF_ASC_NODE": 150.3995, "ARG_OF_PERICENTER": 254.5432, "MEAN_ANOMALY": 256.845, "EPHEMERIS_TYPE": 0, "CLASSIFICATION_TYPE": "U", "NORAD_CAT_ID": 34685, "ELEMENT_SET_NO": 999, "REV_AT_EPOCH": 88519, "BSTAR": 0.0016751766, "MEAN_MOTION_DOT": 7.603e-05, "MEAN_MOTION_DDOT": 0}, "tle": {"line1": "1 34685U 93036YF  25345.88927027  .00007603  00000+0  16752-2 0  9997", "line2": "2 34685  74.0292 150.3995 0014287 254.5432 256.8450 14.57494502885193"}}, "geometry": {"type": "Point", "coordinates": [-25.230999149302374, -17.04943021127383]}}, {"type": "Feature", "properties": {"norad_id": 34689, "name": "COSMOS 2251 DEB", "group": "cosmos-2251-debris", "lat": 43.55883005586868, "lon": 28.54121436955212, "alt_km": 1028.9337668465441, "timestamp": "2025-12-12T05:47:29.166383+00:00", "meta": {"OBJECT_NAME": "COSMOS 2251 DEB", "OBJECT_ID": "1993-036YK", "EPOCH": "2025-12-09T15:43:43.204224", "MEAN_MOTION": 14.04380278, "ECCENTRICITY": 0.022877, "INCLINATION": 74.0977, "RA_OF_ASC_NODE": 228.7634, "ARG_OF_PERICENTER": 298.3373, "MEAN_ANOMALY": 87.6678, "EPHEMERIS_TYPE": 0, "CLASSIFICATION_TYPE": "U", "NORAD_CAT_ID": 34689, "ELEMENT_SET_NO": 999, "REV_AT_EPOCH": 84298, "BSTAR": 0.0057121, "MEAN_MOTION_DOT": 0.00011476, "MEAN_MOTION_DDOT": 0}, "tle": {"line1": "1 34689U 93036YK  25343.65536116  .00011476  00000+0  57121-2 0  9997", "line2": "2 34689  74.0977 228.7634 0228770 298.3373  87.6678 14.04380278842989"}}, "geometry": {"type": "Point", "coordinates": [28.54121436955212, 43.55883005586868]}}, {"type": "Feature", "properties": {"norad_id": 34721, "name": "COSMOS 2251 DEB", "group": "cosmos-2251-debris", "lat": 3.4206691797328426, "lon": 146.12668286833056, "alt_km": 902.6629224903254, "timestamp": "2025-12-12T05:47:29.166393+00:00", "meta": {"OBJECT_NAME": "COSMOS 2251 DEB", "OBJECT_ID": "1993-036YP", "EPOCH": "2025-12-11T15:46:16.254048", "MEAN_MOTION": 13.96844968, "ECCENTRICITY": 0.02237513, "INCLINATION": 73.9236, "RA_OF_ASC_NODE": 328.1273, "ARG_OF_PERICENTER": 267.2754, "MEAN_ANOMALY": 215.1227, "EPHEMERIS_TYPE": 0, "CLASSIFICATION_TYPE": "U", "NORAD_CAT_ID": 34721, "ELEMENT_SET_NO": 999, "REV_AT_EPOCH": 85134, "BSTAR": 0.0023947669, "MEAN_MOTION_DOT": 4.09e-05, "MEAN_MOTION_DDOT": 0}, "tle": {"line1": "1 34721U 93036YP  25345.65713257  .00004090  00000+0  23948-2 0  9993", "line2": "2 34721  73.9236 328.1273 0223751 267.2754 215.1227 13.96844968851347"}}, "geometry": {"type": "Point", "coordinates": [146.12668286833056, 3.4206691797328426]}}, {"type": "Feature", "properties": {"norad_id": 34722, "name": "COSMOS 2251 DEB", "group": "cosmos-2251-debris", "lat": 18.348684587000484, "lon": -17.53631517375961, "alt_km": 905.2483793366537, "timestamp": "2025-12-12T05:47:29.166403+00:00", "meta": {"OBJECT_NAME": "COSMOS 2251 DEB", "OBJECT_ID": "1993-036YQ", "EPOCH": "2025-12-11T23:02:01.807296", "MEAN_MOTION": 14.11930653, "ECCENTRICITY": 0.01671776, "INCLINATION": 73.8736, "RA_OF_ASC_NODE": 337.4593, "ARG_OF_PERICENTER": 263.1594, "MEAN_ANOMALY": 123.7183, "EPHEMERIS_TYPE": 0, "CLASSIFICATION_TYPE": "U", "NORAD_CAT_ID": 34722, "ELEMENT_SET_NO": 999, "REV_AT_EPOCH": 86234, "BSTAR": 0.0012458408, "MEAN_MOTION_DOT": 2.572e-05, "MEAN_MOTION_DDOT": 0}, "tle": {"line1": "1 34722U 93036YQ  25345.95974314  .00002572  00000+0  12458-2 0  9997", "line2": "2 34722  73.8736 337.4593 0167177 263.1594 123.7183 14.11930653862348"}}, "geometry": {"type": "Point", "coordinates": [-17.53631517375961, 18.348684587000484]}}, {"type": "Feature", "properties": {"norad_id": 34726, "name": "COSMOS 2251 DEB", "group": "cosmos-2251-debris", "lat": -37.83536554377281, "lon": -25.57661037787557, "alt_km": 730.6218296177767, "timestamp": "2025-12-12T05:47:29.166414+00:00", "meta": {"OBJECT_NAME": "COSMOS 2251 DEB", "OBJECT_ID": "1993-036YU", "EPOCH": "2025-12-11T18:27:30.106080", "MEAN_MOTION": 14.59475745, "ECCENTRICITY": 0.00420198, "INCLINATION": 74.0292, "RA_OF_ASC_NODE": 348.1752, "ARG_OF_PERICENTER": 139.3421, "MEAN_ANOMALY": 221.0895, "EPHEMERIS_TYPE": 0, "CLASSIFICATION_TYPE": "U", "NORAD_CAT_ID": 34726, "ELEMENT_SET_NO": 999, "REV_AT_EPOCH": 88488, "BSTAR": 0.00061648967, "MEAN_MOTION_DOT": 2.932e-05, "MEAN_MOTION_DDOT": 0}, "tle": {"line1": "1 34726U 93036YU  25345.76909845  .00002932  00000+0  61649-3 0  9994", "line2": "2 34726  74.0292 348.1752 0042019 139.3421 221.0895 14.59475745884881"}}, "geometry": {"type": "Point", "coordinates": [-25.57661037787557, -37.83536554377281]}}, {"type": "Feature", "properties": {"norad_id": 34728, "name": "COSMOS 2251 DEB", "group": "cosmos-2251-debris", "lat": 1.3619174355335784, "lon": 72.34837558763624, "alt_km": 678.5553966654224, "timestamp": "2025-12-12T05:47:29.166424+00:00", "meta": {"OBJECT_NAME": "COSMOS 2251 DEB", "OBJECT_ID": "1993-036YW", "EPOCH": "2025-12-11T04:29:59.772768", "MEAN_MOTION": 14.70820448, "ECCENTRICITY": 0.00410287, "INCLINATION": 74.0167, "RA_OF_ASC_NODE": 254.7862, "ARG_OF_PERICENTER": 52.8225, "MEAN_ANOMALY": 307.668, "EPHEMERIS_TYPE": 0, "CLASSIFICATION_TYPE": "U", "NORAD_CAT_ID": 34728, "ELEMENT_SET_NO": 999, "REV_AT_EPOCH": 88777, "BSTAR": 0.0012296357, "MEAN_MOTION_DOT": 7.588e-05, "MEAN_MOTION_DDOT": 0}, "tle": {"line1": "1 34728U 93036YW  25345.18749737  .00007588  00000+0  12296-2 0  9999", "line2": "2 34728  74.0167 254.7862 0041028  52.8225 307.6680 14.70820448887779"}}, "geometry": {"type": "Point", "coordinates": [72.34837558763624, 1.3619174355335784]}}, {"type": "Feature", "properties": {"norad_id": 34729, "name": "COSMOS 2251 DEB", "group": "cosmos-2251-debris", "lat": 9.123807755221552, "lon": 176.77952219559137, "alt_km": 616.7853323629288, "timestamp": "2025-12-12T05:47:29.166434+00:00", "meta": {"OBJECT_NAME": "COSMOS 2251 DEB", "OBJECT_ID": "1993-036YX", "EPOCH": "2025-12-11T11:53:33.442944", "MEAN_MOTION": 14.82746168, "ECCENTRICITY": 0.0011812, "INCLINATION": 74.0184, "RA_OF_ASC_NODE": 0.8939, "ARG_OF_PERICENTER": 120.5033, "MEAN_ANOMALY": 30.4826, "EPHEMERIS_TYPE": 0, "CLASSIFICATION_TYPE": "U", "NORAD_CAT_ID": 34729, "ELEMENT_SET_NO": 999, "REV_AT_EPOCH": 88439, "BSTAR": 0.0036352338, "MEAN_MOTION_DOT": 0.00029499, "MEAN_MOTION_DDOT": 0}, "tle": {"line1": "1 34729U 93036YX  25345.49552596  .00029499  00000+0  36352-2 0  9993", "line2": "2 34729  74.0184   0.8939 0011812 120.5033  30.4826 14.82746168884399"}}, "geometry": {"type": "Point", "coordinates": [176.77952219559137, 9.123807755221552]}}, {"type": "Feature", "properties": {"norad_id": 34732, "name": "COSMOS 2251 DEB", "group": "cosmos-2251-debris", "lat": 71.41344697389798, "lon": -144.1729449107997, "alt_km": 750.9088187036032, "timestamp": "2025-12-12T05:47:29.166445+00:00", "meta": {"OBJECT_NAME": "COSMOS 2251 DEB", "OBJECT_ID": "1993-036ZA", "EPOCH": "2025-12-11T07:54:25.399296", "MEAN_MOTION": 14.47298707, "ECCENTRICITY": 0.00404226, "INCLINATION": 74.0452, "RA_OF_ASC_NODE": 95.821, "ARG_OF_PERICENTER": 247.1005, "MEAN_ANOMALY": 143.733, "EPHEMERIS_TYPE": 0, "CLASSIFICATION_TYPE": "U", "NORAD_CAT_ID": 34732, "ELEMENT_SET_NO": 999, "REV_AT_EPOCH": 88123, "BSTAR": 0.00027123805, "MEAN_MOTION_DOT": 9.75e-06, "MEAN_MOTION_DDOT": 0}, "tle": {"line1": "1 34732U 93036ZA  25345.32946064  .00000975  00000+0  27124-3 0  9992", "line2": "2 34732  74.0452  95.8210 0040422 247.1005 143.7330 14.47298707881231"}}, "geometry": {"type": "Point", "coordinates": [-144.1729449107997, 71.41344697389798]}}]}